XRISM                   
1 57800U 23137A   24194.49215429  .00004884  00000+0  36233-3 0  9995
2 57800  31.0017 211.4994 0009491 101.1625 259.0078 15.01485488 46491
